2026-134A               
1 69538U 26134A   26194.64065377  .00002420  00000+0  15490-3 0  9996
2 69538  97.7005 264.8493 0015944 175.9385 184.1976 15.09452984  4308
2026-134B               
1 69539U 26134B   26194.63770126  .00002437  00000+0  15528-3 0  9991
2 69539  97.6978 264.8443 0016057 178.3909 181.7374 15.09609403  4290
2026-134C               
1 69540U 26134C   26194.63710286  .00002498  00000+0  15898-3 0  9991
2 69540  97.6986 264.8472 0015543 179.5077 180.6169 15.09641736  4296
2026-134D               
1 69541U 26134D   26194.63602035  .00002495  00000+0  15851-3 0  9990
2 69541  97.7024 264.8626 0016579 179.5104 180.6144 15.09699432  4292
2026-134E               
1 69542U 26134E   26194.56932791  .00002449  00000+0  15560-3 0  9994
2 69542  97.7044 264.8033 0016310 180.2386 179.8837 15.09720677  4285
2026-134F               
1 69543U 26134F   26194.63474455  .00002505  00000+0  15888-3 0  9997
2 69543  97.6997 264.8543 0015607 181.7327 178.3850 15.09766365  4291
2026-134G               
1 69544U 26134G   26194.63315929  .00002655  00000+0  16771-3 0  9996
2 69544  97.7041 264.8718 0016052 182.5157 177.5994 15.09851680  4297
2026-134H               
1 69545U 26134H   26194.69818397  .00002607  00000+0  16448-3 0  9998
2 69545  97.7025 264.9352 0015918 183.7041 176.4073 15.09918402  4292
STARLINK-37880          
1 69546U 26135A   26194.83335647  .00019058  00000+0  35126-3 0  9990
2 69546  97.2841 223.1163 0000385 122.0642 171.3150 15.49186021  5587
STARLINK-37881          
1 69547U 26135B   26194.83335647  .00021561  00000+0  39724-3 0  9991
2 69547  97.2846 223.2068 0001482  61.3657  89.4198 15.49172728  5588
STARLINK-37265          
1 69548U 26135C   26194.83335647 -.02116052  00000+0 -35537-1 0  9992
2 69548  97.2849 223.2890 0001699 112.8679 217.7959 15.54999335  5589
STARLINK-37871          
1 69549U 26135D   26194.83335647  .00019189  00000+0  35400-3 0  9993
2 69549  97.2842 223.2023 0001784  72.3572  58.2150 15.49158125  5587
STARLINK-37865          
1 69550U 26135E   26194.83335647  .00037140  00000+0  68237-3 0  9996
2 69550  97.2842 223.2124 0001638  93.8056  64.6713 15.49144454  5580
STARLINK-37862          
1 69551U 26135F   26194.83335647 -.03032918  00000+0 -47562-1 0  9996
2 69551  97.2844 223.2762 0001413  75.2272 222.9947 15.57585866  5590
STARLINK-37861          
1 69552U 26135G   26194.83335647  .00032055  00000+0  58982-3 0  9994
2 69552  97.2842 223.2340 0000557 113.6705  99.8825 15.49132248  5596
STARLINK-37859          
1 69553U 26135H   26194.83335647 -.01798524  00000+0 -34156-1 0  9993
2 69553  97.2938 223.2515 0001946 104.1815 145.9021 15.51618876  5597
STARLINK-37860          
1 69554U 26135J   26194.83335647 -.02196637  00000+0 -40015-1 0  9993
2 69554  97.2840 223.2911 0001203 111.3893 224.6315 15.52911786  5590
STARLINK-37858          
1 69555U 26135K   26194.83335647 -.02653474  00000+0 -49784-1 0  9993
2 69555  97.2846 223.2754 0000968  80.2472 226.7954 15.52196544  5595
STARLINK-37927          
1 69556U 26135L   26194.83335647  .00034001  00000+0  62450-3 0  9996
2 69556  97.2840 223.2314 0001163  82.6913 116.1806 15.49172611  5599
STARLINK-37929          
1 69557U 26135M   26194.83335647  .00027105  00000+0  49832-3 0  9993
2 69557  97.2845 223.1893 0001700  94.1882   7.7143 15.49187886  5595
STARLINK-37954          
1 69558U 26135N   26194.83335647  .00018170  00000+0  33506-3 0  9997
2 69558  97.2846 223.1912 0000780  86.7658  21.9630 15.49183143  5595
STARLINK-37958          
1 69559U 26135P   26194.83335647 -.02720126  00000+0 -40969-1 0  9992
2 69559  97.2842 223.3356 0001645  64.8586  24.5998 15.58223433  5597
STARLINK-37950          
1 69560U 26135Q   26194.83335647 -.00930082  00000+0 -17132-1 0  9992
2 69560  97.2842 223.2905 0001621  73.8291 259.7010 15.51933935  5590
STARLINK-37952          
1 69561U 26135R   26194.83335647  .00017808  00000+0  32847-3 0  9995
2 69561  97.2838 223.2399 0001554  68.9777 156.5630 15.49178772  5591
STARLINK-37935          
1 69562U 26135S   26194.83335647  .00030724  00000+0  56448-3 0  9991
2 69562  97.2847 223.1967 0001651  88.8953  29.4554 15.49183510  5596
STARLINK-37936          
1 69563U 26135T   26194.83335647  .00025045  00000+0  46082-3 0  9995
2 69563  97.2837 223.2288 0001790  80.1538 116.1571 15.49180654  5590
STARLINK-37932          
1 69564U 26135U   26194.83335647 -.02523727  00000+0 -45498-1 0  9998
2 69564  97.2847 223.3286 0001465  59.8704   2.9946 15.53110857  5599
STARLINK-37916          
1 69565U 26135V   26194.83335647 -.00737000  00000+0 -14413-1 0  9991
2 69565  97.2837 223.2887 0001895  87.3670 244.0129 15.49665285  5597
STARLINK-37909          
1 69566U 26135W   26194.83335647 -.02485254  00000+0 -37625-1 0  9995
2 69566  97.2835 223.3844 0002092  74.3884 117.1861 15.58357350  5597
STARLINK-37934          
1 69567U 26135X   26194.83335647  .00007453  00000+0  13864-3 0  9994
2 69567  97.2936 223.2879 0001147  66.7448 267.6609 15.49176676  5599
